[
    {
        "Altitude(m)": 611967.1999159424,
        "Argument of Periapsis(deg)": 0.0,
        "Eccentricity": 0.0,
        "Inclination(deg)": 60.0,
        "Latitude(deg)": 59.140225183522325,
        "Longitude(deg)": 146.09220243538752,
        "Mean Anomaly(deg)": 98.18179999999998,
        "RAAN(deg)": 140.0,
        "Satellite Name": "Test1 622",
        "Satellite Number": 622,
        "Semi-Major Axis(m)": 6980739.136638005,
        "Time(s)": 0
    },
    {
        "Altitude(m)": 611934.3992720753,
        "Argument of Periapsis(deg)": 0.00010418945913296404,
        "Eccentricity": 0.0,
        "Inclination(deg)": 60.0,
        "Latitude(deg)": 58.98658565663403,
        "Longitude(deg)": 147.2154493292362,
        "Mean Anomaly(deg)": 98.80190614546179,
        "RAAN(deg)": 139.99957995086024,
        "Satellite Name": "Test1 622",
        "Satellite Number": 622,
        "Semi-Major Axis(m)": 6980739.136638005,
        "Time(s)": 10
    }
]